[
{
"CCSDS_OMM_VERS": "2.0",
"COMMENT": "GENERATED VIA SPACE-TRACK.ORG API",
"CREATION_DATE": "2025-03-18T19:01:07",
"ORIGINATOR": "18 SPCS",
"OBJECT_NAME": "GALILEO 11 (268)",
"OBJECT_ID": "2015-079B",
"CENTER_NAME": "EARTH",
"REF_FRAME": "TEME",
"TIME_SYSTEM": "UTC",
"MEAN_ELEMENT_THEORY": "SGP4",
"EPOCH": "2025-03-17T21:30:58.140000",
"MEAN_MOTION": "1.70474595",
"ECCENTRICITY": "0.00043710",
"INCLINATION": "55.5562",
"RA_OF_ASC_NODE": "113.7876",
"ARG_OF_PERICENTER": "312.6856",
"MEAN_ANOMALY": "47.3550",
"EPHEMERIS_TYPE": "0",
"CLASSIFICATION_TYPE": "U",
"NORAD_CAT_ID": "41175",
"ELEMENT_SET_NO": "999",
"REV_AT_EPOCH": "5741",
"BSTAR": "0.00000000000000",
"MEAN_MOTION_DOT": "0.00000032",
"MEAN_MOTION_DDOT": "0.0000000000000",
"SEMIMAJOR_AXIS": "29600.251",
"PERIOD": "844.701",
"APOAPSIS": "23235.054",
"PERIAPSIS": "23209.178",
"OBJECT_TYPE": "PAYLOAD",
"RCS_SIZE": "LARGE",
"COUNTRY_CODE": "ESA",
"LAUNCH_DATE": "2015-12-17",
"SITE": "FRGUI",
"DECAY_DATE": null,
"FILE": "4673118",
"GP_ID": "283416583",
"TLE_LINE0": "0 GALILEO 11 (268)",
"TLE_LINE1": "1 41175U 15079B   25076.89650625  .00000032  00000-0  00000-0 0  9996",
"TLE_LINE2": "2 41175  55.5562 113.7876 0004371 312.6856  47.3550  1.70474595 57410"
},
{
"CCSDS_OMM_VERS": "2.0",
"COMMENT": "GENERATED VIA SPACE-TRACK.ORG API",
"CREATION_DATE": "2025-03-18T19:01:07",
"ORIGINATOR": "18 SPCS",
"OBJECT_NAME": "GALILEO 16 (26C)",
"OBJECT_ID": "2016-069B",
"CENTER_NAME": "EARTH",
"REF_FRAME": "TEME",
"TIME_SYSTEM": "UTC",
"MEAN_ELEMENT_THEORY": "SGP4",
"EPOCH": "2025-03-17T19:46:32.221056",
"MEAN_MOTION": "1.70474845",
"ECCENTRICITY": "0.00037350",
"INCLINATION": "55.2222",
"RA_OF_ASC_NODE": "113.7227",
"ARG_OF_PERICENTER": "321.7790",
"MEAN_ANOMALY": "38.2721",
"EPHEMERIS_TYPE": "0",
"CLASSIFICATION_TYPE": "U",
"NORAD_CAT_ID": "41860",
"ELEMENT_SET_NO": "999",
"REV_AT_EPOCH": "5187",
"BSTAR": "0.00000000000000",
"MEAN_MOTION_DOT": "0.00000031",
"MEAN_MOTION_DDOT": "0.0000000000000",
"SEMIMAJOR_AXIS": "29600.222",
"PERIOD": "844.699",
"APOAPSIS": "23233.143",
"PERIAPSIS": "23211.032",
"OBJECT_TYPE": "PAYLOAD",
"RCS_SIZE": "LARGE",
"COUNTRY_CODE": "ESA",
"LAUNCH_DATE": "2016-11-17",
"SITE": "FRGUI",
"DECAY_DATE": null,
"FILE": "4673118",
"GP_ID": "283417310",
"TLE_LINE0": "0 GALILEO 16 (26C)",
"TLE_LINE1": "1 41860U 16069B   25076.82398404  .00000031  00000-0  00000-0 0  9993",
"TLE_LINE2": "2 41860  55.2222 113.7227 0003735 321.7790  38.2721  1.70474845 51873"
},
{
"CCSDS_OMM_VERS": "2.0",
"COMMENT": "GENERATED VIA SPACE-TRACK.ORG API",
"CREATION_DATE": "2025-03-18T02:25:22",
"ORIGINATOR": "18 SPCS",
"OBJECT_NAME": "GALILEO 12 (269)",
"OBJECT_ID": "2015-079A",
"CENTER_NAME": "EARTH",
"REF_FRAME": "TEME",
"TIME_SYSTEM": "UTC",
"MEAN_ELEMENT_THEORY": "SGP4",
"EPOCH": "2025-03-17T16:14:15.041472",
"MEAN_MOTION": "1.70474731",
"ECCENTRICITY": "0.00049640",
"INCLINATION": "55.5591",
"RA_OF_ASC_NODE": "113.7963",
"ARG_OF_PERICENTER": "313.0034",
"MEAN_ANOMALY": "47.0333",
"EPHEMERIS_TYPE": "0",
"CLASSIFICATION_TYPE": "U",
"NORAD_CAT_ID": "41174",
"ELEMENT_SET_NO": "999",
"REV_AT_EPOCH": "5699",
"BSTAR": "0.00000000000000",
"MEAN_MOTION_DOT": "0.00000032",
"MEAN_MOTION_DDOT": "0.0000000000000",
"SEMIMAJOR_AXIS": "29600.235",
"PERIOD": "844.700",
"APOAPSIS": "23236.794",
"PERIAPSIS": "23207.407",
"OBJECT_TYPE": "PAYLOAD",
"RCS_SIZE": "LARGE",
"COUNTRY_CODE": "ESA",
"LAUNCH_DATE": "2015-12-17",
"SITE": "FRGUI",
"DECAY_DATE": null,
"FILE": "4672421",
"GP_ID": "283370219",
"TLE_LINE0": "0 GALILEO 12 (269)",
"TLE_LINE1": "1 41174U 15079A   25076.67656298  .00000032  00000-0  00000-0 0  9993",
"TLE_LINE2": "2 41174  55.5591 113.7963 0004964 313.0034  47.0333  1.70474731 56999"
},
{
"CCSDS_OMM_VERS": "2.0",
"COMMENT": "GENERATED VIA SPACE-TRACK.ORG API",
"CREATION_DATE": "2025-03-18T02:25:22",
"ORIGINATOR": "18 SPCS",
"OBJECT_NAME": "GALILEO 21 (2C7)",
"OBJECT_ID": "2017-079C",
"CENTER_NAME": "EARTH",
"REF_FRAME": "TEME",
"TIME_SYSTEM": "UTC",
"MEAN_ELEMENT_THEORY": "SGP4",
"EPOCH": "2025-03-17T13:55:15.625344",
"MEAN_MOTION": "1.70474624",
"ECCENTRICITY": "0.00018050",
"INCLINATION": "55.2272",
"RA_OF_ASC_NODE": "234.0669",
"ARG_OF_PERICENTER": "351.5913",
"MEAN_ANOMALY": "8.3495",
"EPHEMERIS_TYPE": "0",
"CLASSIFICATION_TYPE": "U",
"NORAD_CAT_ID": "43057",
"ELEMENT_SET_NO": "999",
"REV_AT_EPOCH": "4520",
"BSTAR": "0.00000000000000",
"MEAN_MOTION_DOT": "0.00000022",
"MEAN_MOTION_DDOT": "0.0000000000000",
"SEMIMAJOR_AXIS": "29600.248",
"PERIOD": "844.700",
"APOAPSIS": "23227.456",
"PERIAPSIS": "23216.770",
"OBJECT_TYPE": "PAYLOAD",
"RCS_SIZE": "LARGE",
"COUNTRY_CODE": "ESA",
"LAUNCH_DATE": "2017-12-12",
"SITE": "FRGUI",
"DECAY_DATE": null,
"FILE": "4672421",
"GP_ID": "283371818",
"TLE_LINE0": "0 GALILEO 21 (2C7)",
"TLE_LINE1": "1 43057U 17079C   25076.58004196  .00000022  00000-0  00000-0 0  9990",
"TLE_LINE2": "2 43057  55.2272 234.0669 0001805 351.5913   8.3495  1.70474624 45200"
},
{
"CCSDS_OMM_VERS": "2.0",
"COMMENT": "GENERATED VIA SPACE-TRACK.ORG API",
"CREATION_DATE": "2025-03-17T14:36:18",
"ORIGINATOR": "18 SPCS",
"OBJECT_NAME": "GALILEO 24 (2C0)",
"OBJECT_ID": "2018-060D",
"CENTER_NAME": "EARTH",
"REF_FRAME": "TEME",
"TIME_SYSTEM": "UTC",
"MEAN_ELEMENT_THEORY": "SGP4",
"EPOCH": "2025-03-17T04:33:28.961856",
"MEAN_MOTION": "1.70475747",
"ECCENTRICITY": "0.00047920",
"INCLINATION": "57.2860",
"RA_OF_ASC_NODE": "354.1183",
"ARG_OF_PERICENTER": "314.7949",
"MEAN_ANOMALY": "45.1888",
"EPHEMERIS_TYPE": "0",
"CLASSIFICATION_TYPE": "U",
"NORAD_CAT_ID": "43567",
"ELEMENT_SET_NO": "999",
"REV_AT_EPOCH": "4137",
"BSTAR": "0.00000000000000",
"MEAN_MOTION_DOT": "-0.00000096",
"MEAN_MOTION_DDOT": "0.0000000000000",
"SEMIMAJOR_AXIS": "29600.118",
"PERIOD": "844.695",
"APOAPSIS": "23236.167",
"PERIAPSIS": "23207.798",
"OBJECT_TYPE": "PAYLOAD",
"RCS_SIZE": "LARGE",
"COUNTRY_CODE": "ESA",
"LAUNCH_DATE": "2018-07-25",
"SITE": "FRGUI",
"DECAY_DATE": null,
"FILE": "4671864",
"GP_ID": "283312793",
"TLE_LINE0": "0 GALILEO 24 (2C0)",
"TLE_LINE1": "1 43567U 18060D   25076.18991854 -.00000096  00000-0  00000+0 0  9990",
"TLE_LINE2": "2 43567  57.2860 354.1183 0004792 314.7949  45.1888  1.70475747 41370"
},
{
"CCSDS_OMM_VERS": "2.0",
"COMMENT": "GENERATED VIA SPACE-TRACK.ORG API",
"CREATION_DATE": "2025-03-17T06:26:17",
"ORIGINATOR": "18 SPCS",
"OBJECT_NAME": "GALILEO 25 (2C1)",
"OBJECT_ID": "2018-060A",
"CENTER_NAME": "EARTH",
"REF_FRAME": "TEME",
"TIME_SYSTEM": "UTC",
"MEAN_ELEMENT_THEORY": "SGP4",
"EPOCH": "2025-03-17T02:46:01.802496",
"MEAN_MOTION": "1.70475623",
"ECCENTRICITY": "0.00050350",
"INCLINATION": "57.2836",
"RA_OF_ASC_NODE": "354.1161",
"ARG_OF_PERICENTER": "309.8551",
"MEAN_ANOMALY": "50.1231",
"EPHEMERIS_TYPE": "0",
"CLASSIFICATION_TYPE": "U",
"NORAD_CAT_ID": "43564",
"ELEMENT_SET_NO": "999",
"REV_AT_EPOCH": "4138",
"BSTAR": "0.00000000000000",
"MEAN_MOTION_DOT": "-0.00000097",
"MEAN_MOTION_DDOT": "0.0000000000000",
"SEMIMAJOR_AXIS": "29600.132",
"PERIOD": "844.696",
"APOAPSIS": "23236.901",
"PERIAPSIS": "23207.094",
"OBJECT_TYPE": "PAYLOAD",
"RCS_SIZE": "LARGE",
"COUNTRY_CODE": "ESA",
"LAUNCH_DATE": "2018-07-25",
"SITE": "FRGUI",
"DECAY_DATE": null,
"FILE": "4671432",
"GP_ID": "283303445",
"TLE_LINE0": "0 GALILEO 25 (2C1)",
"TLE_LINE1": "1 43564U 18060A   25076.11529864 -.00000097  00000-0  00000+0 0  9999",
"TLE_LINE2": "2 43564  57.2836 354.1161 0005035 309.8551  50.1231  1.70475623 41383"
},
{
"CCSDS_OMM_VERS": "2.0",
"COMMENT": "GENERATED VIA SPACE-TRACK.ORG API",
"CREATION_DATE": "2025-03-17T19:07:54",
"ORIGINATOR": "18 SPCS",
"OBJECT_NAME": "GALILEO 10 (206)",
"OBJECT_ID": "2015-045B",
"CENTER_NAME": "EARTH",
"REF_FRAME": "TEME",
"TIME_SYSTEM": "UTC",
"MEAN_ELEMENT_THEORY": "SGP4",
"EPOCH": "2025-03-16T22:06:29.340288",
"MEAN_MOTION": "1.70473840",
"ECCENTRICITY": "0.00036120",
"INCLINATION": "55.1036",
"RA_OF_ASC_NODE": "234.2280",
"ARG_OF_PERICENTER": "51.4740",
"MEAN_ANOMALY": "308.4997",
"EPHEMERIS_TYPE": "0",
"CLASSIFICATION_TYPE": "U",
"NORAD_CAT_ID": "40890",
"ELEMENT_SET_NO": "999",
"REV_AT_EPOCH": "5924",
"BSTAR": "0.00000000000000",
"MEAN_MOTION_DOT": "0.00000018",
"MEAN_MOTION_DDOT": "0.0000000000000",
"SEMIMAJOR_AXIS": "29600.339",
"PERIOD": "844.704",
"APOAPSIS": "23232.895",
"PERIAPSIS": "23211.512",
"OBJECT_TYPE": "PAYLOAD",
"RCS_SIZE": "LARGE",
"COUNTRY_CODE": "ESA",
"LAUNCH_DATE": "2015-09-11",
"SITE": "FRGUI",
"DECAY_DATE": null,
"FILE": "4672105",
"GP_ID": "283333519",
"TLE_LINE0": "0 GALILEO 10 (206)",
"TLE_LINE1": "1 40890U 15045B   25075.92117292  .00000018  00000-0  00000-0 0  9997",
"TLE_LINE2": "2 40890  55.1036 234.2280 0003612  51.4740 308.4997  1.70473840 59241"
},
{
"CCSDS_OMM_VERS": "2.0",
"COMMENT": "GENERATED VIA SPACE-TRACK.ORG API",
"CREATION_DATE": "2025-03-16T18:34:10",
"ORIGINATOR": "18 SPCS",
"OBJECT_NAME": "GALILEO-FM2",
"OBJECT_ID": "2011-060B",
"CENTER_NAME": "EARTH",
"REF_FRAME": "TEME",
"TIME_SYSTEM": "UTC",
"MEAN_ELEMENT_THEORY": "SGP4",
"EPOCH": "2025-03-16T09:37:21.381024",
"MEAN_MOTION": "1.70476025",
"ECCENTRICITY": "0.00052550",
"INCLINATION": "57.1093",
"RA_OF_ASC_NODE": "354.1692",
"ARG_OF_PERICENTER": "341.6512",
"MEAN_ANOMALY": "118.2181",
"EPHEMERIS_TYPE": "0",
"CLASSIFICATION_TYPE": "U",
"NORAD_CAT_ID": "37847",
"ELEMENT_SET_NO": "999",
"REV_AT_EPOCH": "8332",
"BSTAR": "0.00000000000000",
"MEAN_MOTION_DOT": "-0.00000099",
"MEAN_MOTION_DDOT": "0.0000000000000",
"SEMIMAJOR_AXIS": "29600.086",
"PERIOD": "844.694",
"APOAPSIS": "23237.505",
"PERIAPSIS": "23206.396",
"OBJECT_TYPE": "PAYLOAD",
"RCS_SIZE": "LARGE",
"COUNTRY_CODE": "ESA",
"LAUNCH_DATE": "2011-10-21",
"SITE": "FRGUI",
"DECAY_DATE": null,
"FILE": "4671009",
"GP_ID": "283246303",
"TLE_LINE0": "0 GALILEO-FM2",
"TLE_LINE1": "1 37847U 11060B   25075.40094191 -.00000099  00000-0  00000-0 0  9993",
"TLE_LINE2": "2 37847  57.1093 354.1692 0005255 341.6512 118.2181  1.70476025 83325"
}
]
